STARLINK-36626          
1 67603U 26018Q   26047.88053340 -.00112329  00000+0 -59653-3 0  9999
2 67603  97.2838 112.6841 0003299  37.1624 322.9872 15.80686192  4036
STARLINK-36605          
1 67604U 26018R   26048.15020278  .00133203  00000+0  87977-3 0  9997
2 67604  97.2842 112.9305 0001077  99.1773 260.9614 15.75197819  4071
STARLINK-36281          
1 67605U 26018S   26048.13563558  .00108096  00000+0  55724-3 0  9996
2 67605  97.2836 112.9493 0001015  51.7858 308.3501 15.80850279  4077
STARLINK-35843          
1 67606U 26018T   26048.16667824  .00022658  00000+0  15245-3 0  9994
2 67606  97.2841 112.9639 0001329  59.2091  66.3073 15.75179612  4104
STARLINK-36351          
1 67607U 26018U   26047.94198284 -.00402286  00000+0 -22371-2 0  9997
2 67607  97.2834 112.7539 0000860  40.7914 319.3418 15.80429456  4049
STARLINK-36411          
1 67608U 26018V   26048.13047641  .00171545  00000+0  87745-3 0  9996
2 67608  97.2838 112.9547 0000969 127.2601 232.8756 15.80850342  4078
STARLINK-36312          
1 67609U 26018W   26048.19298001 -.00913954  00000+0 -57991-2 0  9990
2 67609  97.2836 113.0234 0000800  32.7359 327.3958 15.78825847  4080
STARLINK-36387          
1 67610U 26018X   26048.12784226  .00170808  00000+0  87174-3 0  9992
2 67610  97.2843 112.9584 0001524 106.3987 253.7448 15.80900939  4079
STARLINK-36636          
1 67611U 26018Y   26048.06346226  .00012097  00000+0  63531-4 0  9997
2 67611  97.2740 112.8848 0007587 163.1068 197.0454 15.80871397  4065
STARLINK-36407          
1 67612U 26018Z   26048.12585888  .00156075  00000+0  79872-3 0  9993
2 67612  97.2839 112.9618 0001461  99.9421 260.2012 15.80880051  4122
STARLINK-36597          
1 67613U 26018AA  26048.12483247  .00188240  00000+0  95863-3 0  9997
2 67613  97.2844 112.9620 0001592 110.6101 249.5338 15.80902386  4074
NEONSAT-1A              
1 67614U 26019A   26047.93983651  .00003814  00000+0  25411-3 0  9996
2 67614  97.4100 172.2636 0012138 242.5162 117.4833 15.07614373  2692
