CCSDS_OMM_VERS = 2.0
CREATION_DATE  = 
ORIGINATOR     = 

OBJECT_NAME    = STARLINK-36626
OBJECT_ID      = 2026-018Q
CENTER_NAME    = EARTH
REF_FRAME      = TEME
TIME_SYSTEM    = UTC
MEAN_ELEMENT_THEORY = SGP/SGP4

EPOCH          = 2026-02-16T21:07:58.085760
MEAN_MOTION    = 15.80686192
ECCENTRICITY   = .0003299
INCLINATION    = 97.2838
RA_OF_ASC_NODE = 112.6841
ARG_OF_PERICENTER = 37.1624
MEAN_ANOMALY   = 322.9872

EPHEMERIS_TYPE = 0
CLASSIFICATION_TYPE = U
NORAD_CAT_ID   = 67603
ELEMENT_SET_NO = 999
REV_AT_EPOCH   = 403
BSTAR          = -.59653E-3
MEAN_MOTION_DOT = -.112329E-2
MEAN_MOTION_DDOT = 0

CCSDS_OMM_VERS = 2.0
CREATION_DATE  = 
ORIGINATOR     = 

OBJECT_NAME    = STARLINK-36605
OBJECT_ID      = 2026-018R
CENTER_NAME    = EARTH
REF_FRAME      = TEME
TIME_SYSTEM    = UTC
MEAN_ELEMENT_THEORY = SGP/SGP4

EPOCH          = 2026-02-17T03:36:17.520192
MEAN_MOTION    = 15.75197819
ECCENTRICITY   = .0001077
INCLINATION    = 97.2842
RA_OF_ASC_NODE = 112.9305
ARG_OF_PERICENTER = 99.1773
MEAN_ANOMALY   = 260.9614

EPHEMERIS_TYPE = 0
CLASSIFICATION_TYPE = U
NORAD_CAT_ID   = 67604
ELEMENT_SET_NO = 999
REV_AT_EPOCH   = 407
BSTAR          = .87977E-3
MEAN_MOTION_DOT = .133203E-2
MEAN_MOTION_DDOT = 0

CCSDS_OMM_VERS = 2.0
CREATION_DATE  = 
ORIGINATOR     = 

OBJECT_NAME    = STARLINK-36281
OBJECT_ID      = 2026-018S
CENTER_NAME    = EARTH
REF_FRAME      = TEME
TIME_SYSTEM    = UTC
MEAN_ELEMENT_THEORY = SGP/SGP4

EPOCH          = 2026-02-17T03:15:18.914112
MEAN_MOTION    = 15.80850279
ECCENTRICITY   = .0001015
INCLINATION    = 97.2836
RA_OF_ASC_NODE = 112.9493
ARG_OF_PERICENTER = 51.7858
MEAN_ANOMALY   = 308.3501

EPHEMERIS_TYPE = 0
CLASSIFICATION_TYPE = U
NORAD_CAT_ID   = 67605
ELEMENT_SET_NO = 999
REV_AT_EPOCH   = 407
BSTAR          = .55724E-3
MEAN_MOTION_DOT = .108096E-2
MEAN_MOTION_DDOT = 0

CCSDS_OMM_VERS = 2.0
CREATION_DATE  = 
ORIGINATOR     = 

OBJECT_NAME    = STARLINK-35843
OBJECT_ID      = 2026-018T
CENTER_NAME    = EARTH
REF_FRAME      = TEME
TIME_SYSTEM    = UTC
MEAN_ELEMENT_THEORY = SGP/SGP4

EPOCH          = 2026-02-17T04:00:00.999936
MEAN_MOTION    = 15.75179612
ECCENTRICITY   = .0001329
INCLINATION    = 97.2841
RA_OF_ASC_NODE = 112.9639
ARG_OF_PERICENTER = 59.2091
MEAN_ANOMALY   = 66.3073

EPHEMERIS_TYPE = 0
CLASSIFICATION_TYPE = U
NORAD_CAT_ID   = 67606
ELEMENT_SET_NO = 999
REV_AT_EPOCH   = 410
BSTAR          = .15245E-3
MEAN_MOTION_DOT = .22658E-3
MEAN_MOTION_DDOT = 0

CCSDS_OMM_VERS = 2.0
CREATION_DATE  = 
ORIGINATOR     = 

OBJECT_NAME    = STARLINK-36351
OBJECT_ID      = 2026-018U
CENTER_NAME    = EARTH
REF_FRAME      = TEME
TIME_SYSTEM    = UTC
MEAN_ELEMENT_THEORY = SGP/SGP4

EPOCH          = 2026-02-16T22:36:27.317376
MEAN_MOTION    = 15.80429456
ECCENTRICITY   = .000086
INCLINATION    = 97.2834
RA_OF_ASC_NODE = 112.7539
ARG_OF_PERICENTER = 40.7914
MEAN_ANOMALY   = 319.3418

EPHEMERIS_TYPE = 0
CLASSIFICATION_TYPE = U
NORAD_CAT_ID   = 67607
ELEMENT_SET_NO = 999
REV_AT_EPOCH   = 404
BSTAR          = -.22371E-2
MEAN_MOTION_DOT = -.402286E-2
MEAN_MOTION_DDOT = 0

CCSDS_OMM_VERS = 2.0
CREATION_DATE  = 
ORIGINATOR     = 

OBJECT_NAME    = STARLINK-36411
OBJECT_ID      = 2026-018V
CENTER_NAME    = EARTH
REF_FRAME      = TEME
TIME_SYSTEM    = UTC
MEAN_ELEMENT_THEORY = SGP/SGP4

EPOCH          = 2026-02-17T03:07:53.161824
MEAN_MOTION    = 15.80850342
ECCENTRICITY   = .0000969
INCLINATION    = 97.2838
RA_OF_ASC_NODE = 112.9547
ARG_OF_PERICENTER = 127.2601
MEAN_ANOMALY   = 232.8756

EPHEMERIS_TYPE = 0
CLASSIFICATION_TYPE = U
NORAD_CAT_ID   = 67608
ELEMENT_SET_NO = 999
REV_AT_EPOCH   = 407
BSTAR          = .87745E-3
MEAN_MOTION_DOT = .171545E-2
MEAN_MOTION_DDOT = 0

CCSDS_OMM_VERS = 2.0
CREATION_DATE  = 
ORIGINATOR     = 

OBJECT_NAME    = STARLINK-36312
OBJECT_ID      = 2026-018W
CENTER_NAME    = EARTH
REF_FRAME      = TEME
TIME_SYSTEM    = UTC
MEAN_ELEMENT_THEORY = SGP/SGP4

EPOCH          = 2026-02-17T04:37:53.472864
MEAN_MOTION    = 15.78825847
ECCENTRICITY   = .00008
INCLINATION    = 97.2836
RA_OF_ASC_NODE = 113.0234
ARG_OF_PERICENTER = 32.7359
MEAN_ANOMALY   = 327.3958

EPHEMERIS_TYPE = 0
CLASSIFICATION_TYPE = U
NORAD_CAT_ID   = 67609
ELEMENT_SET_NO = 999
REV_AT_EPOCH   = 408
BSTAR          = -.57991E-2
MEAN_MOTION_DOT = -.913954E-2
MEAN_MOTION_DDOT = 0

CCSDS_OMM_VERS = 2.0
CREATION_DATE  = 
ORIGINATOR     = 

OBJECT_NAME    = STARLINK-36387
OBJECT_ID      = 2026-018X
CENTER_NAME    = EARTH
REF_FRAME      = TEME
TIME_SYSTEM    = UTC
MEAN_ELEMENT_THEORY = SGP/SGP4

EPOCH          = 2026-02-17T03:04:05.571264
MEAN_MOTION    = 15.80900939
ECCENTRICITY   = .0001524
INCLINATION    = 97.2843
RA_OF_ASC_NODE = 112.9584
ARG_OF_PERICENTER = 106.3987
MEAN_ANOMALY   = 253.7448

EPHEMERIS_TYPE = 0
CLASSIFICATION_TYPE = U
NORAD_CAT_ID   = 67610
ELEMENT_SET_NO = 999
REV_AT_EPOCH   = 407
BSTAR          = .87174E-3
MEAN_MOTION_DOT = .170808E-2
MEAN_MOTION_DDOT = 0

CCSDS_OMM_VERS = 2.0
CREATION_DATE  = 
ORIGINATOR     = 

OBJECT_NAME    = STARLINK-36636
OBJECT_ID      = 2026-018Y
CENTER_NAME    = EARTH
REF_FRAME      = TEME
TIME_SYSTEM    = UTC
MEAN_ELEMENT_THEORY = SGP/SGP4

EPOCH          = 2026-02-17T01:31:23.139264
MEAN_MOTION    = 15.80871397
ECCENTRICITY   = .0007587
INCLINATION    = 97.2740
RA_OF_ASC_NODE = 112.8848
ARG_OF_PERICENTER = 163.1068
MEAN_ANOMALY   = 197.0454

EPHEMERIS_TYPE = 0
CLASSIFICATION_TYPE = U
NORAD_CAT_ID   = 67611
ELEMENT_SET_NO = 999
REV_AT_EPOCH   = 406
BSTAR          = .63531E-4
MEAN_MOTION_DOT = .12097E-3
MEAN_MOTION_DDOT = 0

CCSDS_OMM_VERS = 2.0
CREATION_DATE  = 
ORIGINATOR     = 

OBJECT_NAME    = STARLINK-36407
OBJECT_ID      = 2026-018Z
CENTER_NAME    = EARTH
REF_FRAME      = TEME
TIME_SYSTEM    = UTC
MEAN_ELEMENT_THEORY = SGP/SGP4

EPOCH          = 2026-02-17T03:01:14.207232
MEAN_MOTION    = 15.80880051
ECCENTRICITY   = .0001461
INCLINATION    = 97.2839
RA_OF_ASC_NODE = 112.9618
ARG_OF_PERICENTER = 99.9421
MEAN_ANOMALY   = 260.2012

EPHEMERIS_TYPE = 0
CLASSIFICATION_TYPE = U
NORAD_CAT_ID   = 67612
ELEMENT_SET_NO = 999
REV_AT_EPOCH   = 412
BSTAR          = .79872E-3
MEAN_MOTION_DOT = .156075E-2
MEAN_MOTION_DDOT = 0

CCSDS_OMM_VERS = 2.0
CREATION_DATE  = 
ORIGINATOR     = 

OBJECT_NAME    = STARLINK-36597
OBJECT_ID      = 2026-018AA
CENTER_NAME    = EARTH
REF_FRAME      = TEME
TIME_SYSTEM    = UTC
MEAN_ELEMENT_THEORY = SGP/SGP4

EPOCH          = 2026-02-17T02:59:45.525408
MEAN_MOTION    = 15.80902386
ECCENTRICITY   = .0001592
INCLINATION    = 97.2844
RA_OF_ASC_NODE = 112.9620
ARG_OF_PERICENTER = 110.6101
MEAN_ANOMALY   = 249.5338

EPHEMERIS_TYPE = 0
CLASSIFICATION_TYPE = U
NORAD_CAT_ID   = 67613
ELEMENT_SET_NO = 999
REV_AT_EPOCH   = 407
BSTAR          = .95863E-3
MEAN_MOTION_DOT = .18824E-2
MEAN_MOTION_DDOT = 0

CCSDS_OMM_VERS = 2.0
CREATION_DATE  = 
ORIGINATOR     = 

OBJECT_NAME    = NEONSAT-1A
OBJECT_ID      = 2026-019A
CENTER_NAME    = EARTH
REF_FRAME      = TEME
TIME_SYSTEM    = UTC
MEAN_ELEMENT_THEORY = SGP/SGP4

EPOCH          = 2026-02-16T22:33:21.874464
MEAN_MOTION    = 15.07614373
ECCENTRICITY   = .0012138
INCLINATION    = 97.4100
RA_OF_ASC_NODE = 172.2636
ARG_OF_PERICENTER = 242.5162
MEAN_ANOMALY   = 117.4833

EPHEMERIS_TYPE = 0
CLASSIFICATION_TYPE = U
NORAD_CAT_ID   = 67614
ELEMENT_SET_NO = 999
REV_AT_EPOCH   = 269
BSTAR          = .25411E-3
MEAN_MOTION_DOT = .3814E-4
MEAN_MOTION_DDOT = 0

